{
  "type": "FeatureCollection",
  "features": [
    {
      "type": "Feature",
      "properties": {
        "norad_id": 28054,
        "name": "DMSP 5D-3 F16 (USA 172)",
        "group": "weather",
        "lat": -61.895057962620854,
        "lon": 29.957846035596152,
        "alt_km": 846.8555240188243,
        "timestamp": "2025-12-21T03:56:50.500977+00:00",
        "meta_object_name": "DMSP 5D-3 F16 (USA 172)",
        "meta_object_id": "2003-048A",
        "meta_epoch": "2025-12-20T20:34:29.811072",
        "meta_mean_motion": 14.14426836,
        "meta_eccentricity": 0.0006288,
        "meta_inclination": 99.0038,
        "meta_ra_of_asc_node": 12.3779,
        "meta_arg_of_pericenter": 295.0195,
        "meta_mean_anomaly": 238.4767,
        "meta_ephemeris_type": 0,
        "meta_classification_type": "U",
        "meta_norad_cat_id": 28054,
        "meta_element_set_no": 999,
        "meta_rev_at_epoch": 14427,
        "meta_bstar": 6.1747e-05,
        "meta_mean_motion_dot": 7.3e-07,
        "meta_mean_motion_ddot": 0,
        "tle_line1": "1 28054U 03048A   25354.85728948  .00000073  00000+0  61747-4 0  9992",
        "tle_line2": "2 28054  99.0038  12.3779 0006288 295.0195 238.4767 14.14426836144278"
      },
      "geometry": {
        "type": "Point",
        "coordinates": [
          29.957846035596152,
          -61.895057962620854
        ]
      }
    },
    {
      "type": "Feature",
      "properties": {
        "norad_id": 28912,
        "name": "METEOSAT-9 (MSG-2)",
        "group": "weather",
        "lat": 6.0717902910081065,
        "lon": -166.6233063377427,
        "alt_km": 36146.57584916609,
        "timestamp": "2025-12-21T03:56:50.501027+00:00",
        "meta_object_name": "METEOSAT-9 (MSG-2)",
        "meta_object_id": "2005-049B",
        "meta_epoch": "2025-12-20T18:34:58.765728",
        "meta_mean_motion": 1.00265537,
        "meta_eccentricity": 0.0104285,
        "meta_inclination": 8.9429,
        "meta_ra_of_asc_node": 55.8777,
        "meta_arg_of_pericenter": 282.8799,
        "meta_mean_anomaly": 74.1046,
        "meta_ephemeris_type": 0,
        "meta_classification_type": "U",
        "meta_norad_cat_id": 28912,
        "meta_element_set_no": 999,
        "meta_rev_at_epoch": 520,
        "meta_bstar": 0,
        "meta_mean_motion_dot": 1.08e-06,
        "meta_mean_motion_ddot": 0,
        "tle_line1": "1 28912U 05049B   25354.77429127  .00000108  00000+0  00000+0 0  9995",
        "tle_line2": "2 28912   8.9429  55.8777 0104285 282.8799  74.1046  1.00265537  5208"
      },
      "geometry": {
        "type": "Point",
        "coordinates": [
          -166.6233063377427,
          6.0717902910081065
        ]
      }
    },
    {
      "type": "Feature",
      "properties": {
        "norad_id": 29522,
        "name": "DMSP 5D-3 F17 (USA 191)",
        "group": "weather",
        "lat": -70.1579792012366,
        "lon": 155.14776626693845,
        "alt_km": 845.5435431783917,
        "timestamp": "2025-12-21T03:56:50.501041+00:00",
        "meta_object_name": "DMSP 5D-3 F17 (USA 191)",
        "meta_object_id": "2006-050A",
        "meta_epoch": "2025-12-20T19:58:16.107168",
        "meta_mean_motion": 14.14922919,
        "meta_eccentricity": 0.0009741,
        "meta_inclination": 98.739,
        "meta_ra_of_asc_node": 0.0527,
        "meta_arg_of_pericenter": 200.4887,
        "meta_mean_anomaly": 159.5897,
        "meta_ephemeris_type": 0,
        "meta_classification_type": "U",
        "meta_norad_cat_id": 29522,
        "meta_element_set_no": 999,
        "meta_rev_at_epoch": 98719,
        "meta_bstar": 8.2654e-05,
        "meta_mean_motion_dot": 1.16e-06,
        "meta_mean_motion_ddot": 0,
        "tle_line1": "1 29522U 06050A   25354.83213087  .00000116  00000+0  82654-4 0  9998",
        "tle_line2": "2 29522  98.7390   0.0527 0009741 200.4887 159.5897 14.14922919987192"
      },
      "geometry": {
        "type": "Point",
        "coordinates": [
          155.14776626693845,
          -70.1579792012366
        ]
      }
    },
    {
      "type": "Feature",
      "properties": {
        "norad_id": 32958,
        "name": "FENGYUN 3A",
        "group": "weather",
        "lat": 72.59465645049123,
        "lon": 143.64321385904287,
        "alt_km": 825.5089049062872,
        "timestamp": "2025-12-21T03:56:50.501054+00:00",
        "meta_object_name": "FENGYUN 3A",
        "meta_object_id": "2008-026A",
        "meta_epoch": "2025-12-20T18:59:42.677088",
        "meta_mean_motion": 14.19516897,
        "meta_eccentricity": 0.0007669,
        "meta_inclination": 98.6708,
        "meta_ra_of_asc_node": 294.149,
        "meta_arg_of_pericenter": 284.5029,
        "meta_mean_anomaly": 75.5296,
        "meta_ephemeris_type": 0,
        "meta_classification_type": "U",
        "meta_norad_cat_id": 32958,
        "meta_element_set_no": 999,
        "meta_rev_at_epoch": 91009,
        "meta_bstar": 5.2013e-05,
        "meta_mean_motion_dot": 6.6e-07,
        "meta_mean_motion_ddot": 0,
        "tle_line1": "1 32958U 08026A   25354.79146617  .00000066  00000+0  52013-4 0  9999",
        "tle_line2": "2 32958  98.6708 294.1490 0007669 284.5029  75.5296 14.19516897910098"
      },
      "geometry": {
        "type": "Point",
        "coordinates": [
          143.64321385904287,
          72.59465645049123
        ]
      }
    },
    {
      "type": "Feature",
      "properties": {
        "norad_id": 35491,
        "name": "GOES 14",
        "group": "weather",
        "lat": -0.9393875010148122,
        "lon": 34.13285658333424,
        "alt_km": 35836.5892104617,
        "timestamp": "2025-12-21T03:56:50.501067+00:00",
        "meta_object_name": "GOES 14",
        "meta_object_id": "2009-033A",
        "meta_epoch": "2025-12-20T14:23:46.907808",
        "meta_mean_motion": 1.00096889,
        "meta_eccentricity": 5.18e-05,
        "meta_inclination": 1.223,
        "meta_ra_of_asc_node": 85.3269,
        "meta_arg_of_pericenter": 182.5261,
        "meta_mean_anomaly": 282.8096,
        "meta_ephemeris_type": 0,
        "meta_classification_type": "U",
        "meta_norad_cat_id": 35491,
        "meta_element_set_no": 999,
        "meta_rev_at_epoch": 480,
        "meta_bstar": 0,
        "meta_mean_motion_dot": 2.1e-07,
        "meta_mean_motion_ddot": 0,
        "tle_line1": "1 35491U 09033A   25354.59984847  .00000021  00000+0  00000+0 0  9991",
        "tle_line2": "2 35491   1.2230  85.3269 0000518 182.5261 282.8096  1.00096889  4802"
      },
      "geometry": {
        "type": "Point",
        "coordinates": [
          34.13285658333424,
          -0.9393875010148122
        ]
      }
    },
    {
      "type": "Feature",
      "properties": {
        "norad_id": 35951,
        "name": "DMSP 5D-3 F18 (USA 210)",
        "group": "weather",
        "lat": 63.42938769648073,
        "lon": 169.74834788027752,
        "alt_km": 834.5707606068581,
        "timestamp": "2025-12-21T03:56:50.501078+00:00",
        "meta_object_name": "DMSP 5D-3 F18 (USA 210)",
        "meta_object_id": "2009-057A",
        "meta_epoch": "2025-12-20T18:55:10.720128",
        "meta_mean_motion": 14.14774105,
        "meta_eccentricity": 0.0011858,
        "meta_inclination": 98.8842,
        "meta_ra_of_asc_node": 331.1491,
        "meta_arg_of_pericenter": 41.5699,
        "meta_mean_anomaly": 318.6373,
        "meta_ephemeris_type": 0,
        "meta_classification_type": "U",
        "meta_norad_cat_id": 35951,
        "meta_element_set_no": 999,
        "meta_rev_at_epoch": 83436,
        "meta_bstar": 0.00012509,
        "meta_mean_motion_dot": 1.97e-06,
        "meta_mean_motion_ddot": 0,
        "tle_line1": "1 35951U 09057A   25354.78831852  .00000197  00000+0  12509-3 0  9991",
        "tle_line2": "2 35951  98.8842 331.1491 0011858  41.5699 318.6373 14.14774105834362"
      },
      "geometry": {
        "type": "Point",
        "coordinates": [
          169.74834788027752,
          63.42938769648073
        ]
      }
    },
    {
      "type": "Feature",
      "properties": {
        "norad_id": 36411,
        "name": "EWS-G2 (GOES 15)",
        "group": "weather",
        "lat": 0.6737239383402706,
        "lon": -149.49295015081304,
        "alt_km": 35772.34698249624,
        "timestamp": "2025-12-21T03:56:50.501089+00:00",
        "meta_object_name": "EWS-G2 (GOES 15)",
        "meta_object_id": "2010-008A",
        "meta_epoch": "2025-12-20T15:10:42.642336",
        "meta_mean_motion": 1.00271052,
        "meta_eccentricity": 0.0005465,
        "meta_inclination": 0.8321,
        "meta_ra_of_asc_node": 86.0835,
        "meta_arg_of_pericenter": 177.7538,
        "meta_mean_anomaly": 114.6687,
        "meta_ephemeris_type": 0,
        "meta_classification_type": "U",
        "meta_norad_cat_id": 36411,
        "meta_element_set_no": 999,
        "meta_rev_at_epoch": 5784,
        "meta_bstar": 0,
        "meta_mean_motion_dot": 6.1e-07,
        "meta_mean_motion_ddot": 0,
        "tle_line1": "1 36411U 10008A   25354.63243799  .00000061  00000+0  00000+0 0  9991",
        "tle_line2": "2 36411   0.8321  86.0835 0005465 177.7538 114.6687  1.00271052 57844"
      },
      "geometry": {
        "type": "Point",
        "coordinates": [
          -149.49295015081304,
          0.6737239383402706
        ]
      }
    }
  ]
}